0 FENGYUN 1C DEB
1 31920U 99025CLX 13281.45184880  .00004040  00000-0  49488-3 0  6534
2 31920 098.8417 102.7087 0216556 291.6776 096.1518 14.68603010340828
0 FENGYUN 1C DEB
1 31920U 99025CLX 13282.47378405  .00005834  00000-0  70973-3 0  6541
2 31920 098.8417 103.8147 0216566 288.5111 099.1006 14.68623727340974
0 FENGYUN 1C DEB
1 31920U 99025CLX 13283.76262497  .00006043  00000-0  72575-3 0  6562
2 31920 098.8421 105.2087 0216613 284.4175 073.3567 14.68627331341169
0 FENGYUN 1C DEB
1 31920U 99025CLX 13283.77352089  .00007061  00000-0  85697-3 0  6559
2 31920 098.8417 105.2203 0216484 284.4424 130.9095 14.68628820341167
0 FENGYUN 1C DEB
1 31920U 99025CLX 13285.74927319  .00005530  00000-0  67323-3 0  6568
2 31920 098.8412 107.3574 0216414 278.3003 136.9240 14.68648004341450
0 FENGYUN 1C DEB
1 31920U 99025CLX 13288.28277898  .00009313  00000-0  11260-2 0  6572
2 31920 098.8404 110.0987 0216316 270.4129 212.0743 14.68681829341820
0 FENGYUN 1C DEB
1 31920U 99025CLX 13289.76891383  .00009897  00000-0  11958-2 0  6589
2 31920 098.8394 111.7055 0216229 265.7240 149.7825 14.68699164342049
0 FENGYUN 1C DEB
1 31920U 99025CLX 13291.46689019  .00007708  00000-0  93323-3 0  6597
2 31920 098.8399 113.5436 0216179 260.4692 127.5883 14.68724800342295
0 FENGYUN 1C DEB
1 31920U 99025CLX 13294.34609034  .00009921  00000-0  11970-2 0  6604
2 31920 098.8407 116.6592 0216083 251.4722 231.3986 14.68767011342716
